[{"OBJECT_NAME":"STARLINK-35035","OBJECT_ID":"2025-192D","EPOCH":"2026-03-09T18:21:03.759840","MEAN_MOTION":15.31044584,"ECCENTRICITY":0.00010982,"INCLINATION":53.1616,"RA_OF_ASC_NODE":232.154,"ARG_OF_PERICENTER":73.9902,"MEAN_ANOMALY":286.122,"EPHEMERIS_TYPE":0,"CLASSIFICATION_TYPE":"U","NORAD_CAT_ID":65407,"ELEMENT_SET_NO":999,"REV_AT_EPOCH":2939,"BSTAR":0.00093583349,"MEAN_MOTION_DOT":0.00028198,"MEAN_MOTION_DDOT":0},{"OBJECT_NAME":"FLOCK 4G-35","OBJECT_ID":"2025-009CC","EPOCH":"2026-03-09T18:16:29.173728","MEAN_MOTION":15.33603414,"ECCENTRICITY":0.00032423,"INCLINATION":97.4012,"RA_OF_ASC_NODE":151.7924,"ARG_OF_PERICENTER":307.1268,"MEAN_ANOMALY":52.9678,"EPHEMERIS_TYPE":0,"CLASSIFICATION_TYPE":"U","NORAD_CAT_ID":62683,"ELEMENT_SET_NO":999,"REV_AT_EPOCH":12140,"BSTAR":0.00099271567,"MEAN_MOTION_DOT":0.00032274,"MEAN_MOTION_DDOT":0}]
